NORAD_CAT_ID,OBJECT_NAME,OBJECT_TYPE,EPOCH,MEAN_MOTION,ECCENTRICITY,INCLINATION,RA_OF_ASC_NODE,ARG_OF_PERICENTER,MEAN_ANOMALY,BSTAR,MEAN_MOTION_DOT,MEAN_MOTION_DDOT,TLE_LINE0,TLE_LINE1,TLE_LINE2,SEMIMAJOR_AXIS,PERIOD,APOGEE,PERIGEE,DECAYED
52267.0,STARLINK-3748,PAYLOAD,2022-08-01 22:00:00,15.08825725,0.0001945,53.2143,255.8463,43.1949,23.5343,0.0013666,0.0002151999999999,0.0,0 STARLINK-3748,1 52267U 22041G   22213.91667824  .00021520  00000-0  13666-2 0  9998,2 52267  53.2143 255.8463 0001945  43.1949  23.5343 15.08825725 16958,6917.924,95.438,541.135,538.443,0.0
52267.0,STARLINK-3748,PAYLOAD,2022-08-02 14:00:01,15.08823113,0.0002195999999999,53.2142,252.8551,39.5236,50.394,0.0024656999999999,0.00039154,0.0,0 STARLINK-3748,1 52267U 22041G   22214.58334491  .00039154  00000-0  24657-2 0  9997,2 52267  53.2142 252.8551 0002196  39.5236  50.3940 15.08823113 17051,6917.932,95.439,541.316,538.278,0.0
52267.0,STARLINK-3748,PAYLOAD,2022-08-03 06:00:00,15.08863863,0.0002163,53.2146,249.8609,44.4597,68.6463,-0.0019882,-0.00031813,0.0,0 STARLINK-3748,1 52267U 22041G   22215.25001157 -.00031813  00000-0 -19882-2 0  9992,2 52267  53.2146 249.8609 0002163  44.4597  68.6463 15.08863863 17153,6917.807,95.436,541.169,538.1759999999998,0.0
52267.0,STARLINK-3748,PAYLOAD,2022-08-03 14:00:01,15.08831902,0.0002303,53.2146,248.3654,40.0384,84.6793,0.0022107,0.00035064,0.0,0 STARLINK-3748,1 52267U 22041G   22215.58334491  .00035064  00000-0  22107-2 0  9992,2 52267  53.2146 248.3654 0002303  40.0384  84.6793 15.08831902  1302,6917.905,95.438,541.363,538.177,0.0
52267.0,STARLINK-3748,PAYLOAD,2022-08-03 22:00:01,15.08838425,0.0002112999999999,53.2149,246.867,43.3739,93.0156,0.0010639,0.00016684,0.0,0 STARLINK-3748,1 52267U 22041G   22215.91668981  .00016684  00000-0  10639-2 0  9997,2 52267  53.2149 246.8670 0002113  43.3739  93.0156 15.08838425 17250,6917.885,95.438,541.212,538.288,0.0
52267.0,STARLINK-3748,PAYLOAD,2022-08-04 14:00:01,15.08816635,0.0002323999999999,53.2151,243.8758,38.7792,120.7389,0.0017132999999999,0.00027067,0.0,0 STARLINK-3748,1 52267U 22041G   22216.58334491  .00027067  00000-0  17133-2 0  9990,2 52267  53.2151 243.8758 0002324  38.7792 120.7389 15.08816635 17354,6917.9519999999975,95.439,541.425,538.2090000000002,0.0
52267.0,STARLINK-3748,PAYLOAD,2022-08-04 22:00:00,15.08810593,0.0002133,53.2155,242.3777,42.7976,128.3073,0.002268,0.00035963,0.0,0 STARLINK-3748,1 52267U 22041G   22216.91667824  .00035963  00000-0  22680-2 0  9993,2 52267  53.2155 242.3777 0002133  42.7976 128.3073 15.08810593  1309,6917.97,95.439,541.311,538.36,0.0
52267.0,STARLINK-3748,PAYLOAD,2022-08-05 06:00:02,15.088467499999998,0.0002262,53.2157,240.8822,43.0301,139.7117,-0.0017232,-0.00027614,0.0,0 STARLINK-3748,1 52267U 22041G   22217.25002315 -.00027614  00000-0 -17232-2 0  9992,2 52267  53.2157 240.8822 0002262  43.0301 139.7117 15.08846750 17456,6917.86,95.437,541.29,538.16,0.0
52267.0,STARLINK-3748,PAYLOAD,2022-08-05 14:00:01,15.08828801,0.0002376,53.2155,239.3865,40.0358,154.2963,0.0010112,0.00015837,0.0,0 STARLINK-3748,1 52267U 22041G   22217.58335648  .00015837  00000-0  10112-2 0  9998,2 52267  53.2155 239.3865 0002376  40.0358 154.2963 15.08828801  1304,6917.915,95.438,541.423,538.136,0.0
52267.0,STARLINK-3748,PAYLOAD,2022-08-05 22:00:00,15.08816105,0.0002177,53.2157,237.8885,44.253,161.6133,0.0024249,0.00038491,0.0,0 STARLINK-3748,1 52267U 22041G   22217.91667824  .00038491  00000-0  24249-2 0  9996,2 52267  53.2157 237.8885 0002177  44.2530 161.6133 15.08816105  1303,6917.953,95.439,541.3240000000002,538.312,0.0
52267.0,STARLINK-3748,PAYLOAD,2022-08-06 14:00:01,15.08840728,0.0002387,53.2154,234.8974,41.3961,187.6478,0.00025945,3.843e-05,0.0,0 STARLINK-3748,1 52267U 22041G   22218.58334491  .00003843  00000-0  25945-3 0  9999,2 52267  53.2154 234.8974 0002387  41.3961 187.6478 15.08840728 17658,6917.878000000002,95.438,541.394,538.092,0.0
52267.0,STARLINK-3748,PAYLOAD,2022-08-06 22:00:00,15.08819849,0.0002195999999999,53.2154,233.3994,45.9196,194.7283,0.0025334,0.0004024,0.0,0 STARLINK-3748,1 52267U 22041G   22218.91667824  .00040240  00000-0  25334-2 0  9998,2 52267  53.2154 233.3994 0002196  45.9196 194.7283 15.08819849  1300,6917.941999999999,95.439,541.326,538.288,0.0
52267.0,STARLINK-3748,PAYLOAD,2022-08-07 14:00:01,15.08848876,0.0002387,53.2148,230.4083,42.9214,220.9128,-0.00053148,-8.739e-05,0.0,0 STARLINK-3748,1 52267U 22041G   22219.58334491 -.00008739  00000-0 -53148-3 0  9997,2 52267  53.2148 230.4083 0002387  42.9214 220.9128 15.08848876  1302,6917.853,95.437,541.37,538.067,0.0
52267.0,STARLINK-3748,PAYLOAD,2022-08-07 22:00:00,15.08824106,0.0002228,53.2147,228.9103,48.1901,227.2559,0.0027013,0.00042947,0.0,0 STARLINK-3748,1 52267U 22041G   22219.91667824  .00042947  00000-0  27013-2 0  9991,2 52267  53.2147 228.9103 0002228  48.1901 227.2559 15.08824106 17856,6917.929,95.439,541.335,538.253,0.0
52267.0,STARLINK-3748,PAYLOAD,2022-08-08 14:00:01,15.08870084,0.0002379999999999,53.214,225.919,44.3232,254.3871,-0.0024116,-0.00038498,0.0,0 STARLINK-3748,1 52267U 22041G   22220.58335648 -.00038498  00000-0 -24116-2 0  9991,2 52267  53.2140 225.9190 0002380  44.3232 254.3871 15.08870084 17951,6917.788000000001,95.436,541.3,538.007,0.0
52267.0,STARLINK-3748,PAYLOAD,2022-08-08 22:00:00,15.08816042,0.0002215999999999,53.2139,224.4211,48.8638,261.4113,0.0021041,0.00033336,0.0,0 STARLINK-3748,1 52267U 22041G   22220.91667824  .00033336  00000-0  21041-2 0  9990,2 52267  53.2139 224.4211 0002216  48.8638 261.4113 15.08816042  1308,6917.954000000002,95.439,541.352,538.286,0.0
52267.0,STARLINK-3748,PAYLOAD,2022-08-09 14:00:01,15.08846929,0.0002394,53.2134,221.4297,44.24100000000001,289.1961,-0.001361,-0.00021888,0.0,0 STARLINK-3748,1 52267U 22041G   22221.58334491 -.00021888  00000-0 -13610-2 0  9999,2 52267  53.2134 221.4297 0002394  44.2410 289.1961 15.08846929 18100,6917.859,95.437,541.38,538.068,0.0
52267.0,STARLINK-3748,PAYLOAD,2022-08-09 22:00:00,15.08820698,0.0002261,53.2135,219.9317,49.4284,295.6088,0.0021026,0.00033316,0.0,0 STARLINK-3748,1 52267U 22041G   22221.91667824  .00033316  00000-0  21026-2 0  9992,2 52267  53.2135 219.9317 0002261  49.4284 295.6088 15.08820698  1306,6917.939,95.439,541.369,538.24,0.0
52267.0,STARLINK-3748,PAYLOAD,2022-08-10 14:00:01,15.08830894,0.0002406,53.2135,216.9401,43.5747,324.6224,-0.0015989,-0.0002563999999999,0.0,0 STARLINK-3748,1 52267U 22041G   22222.58334491 -.00025640  00000-0 -15989-2 0  9991,2 52267  53.2135 216.9401 0002406  43.5747 324.6224 15.08830894  1301,6917.908,95.438,541.438,538.109,0.0
52267.0,STARLINK-3748,PAYLOAD,2022-08-10 16:00:00,15.08831543,0.0002363,53.2137,216.5655,45.4536,55.6367,-0.0018739999999999,-0.00029984,0.0,0 STARLINK-3748,1 52267U 22041G   22222.66667824 -.00029984  00000-0 -18740-2 0  9992,2 52267  53.2137 216.5655 0002363  45.4536  55.6367 15.08831543 18274,6917.906,95.438,541.406,538.137,0.0
52267.0,STARLINK-3748,PAYLOAD,2022-08-10 22:00:00,15.08800753,0.0002308,53.2137,215.4422,49.129,330.6461,0.0026638,0.00042316,0.0,0 STARLINK-3748,1 52267U 22041G   22222.91667824  .00042316  00000-0  26638-2 0  9997,2 52267  53.2137 215.4422 0002308  49.1290 330.6461 15.08800753  1307,6918.0,95.44,541.462,538.269,0.0
52267.0,STARLINK-3748,PAYLOAD,2022-08-11 06:00:02,15.08829715,0.0002515,53.2139,213.9474,46.56,344.8473,-0.0010103999999999,-0.00016329,0.0,0 STARLINK-3748,1 52267U 22041G   22223.25002315 -.00016329  00000-0 -10104-2 0  9991,2 52267  53.2139 213.9474 0002515  46.5600 344.8473 15.08829715 18368,6917.9119999999975,95.438,541.5169999999998,538.0369999999998,0.0
52267.0,STARLINK-3748,PAYLOAD,2022-08-11 14:00:01,15.08842685,0.0002506999999999,53.214,212.4506,45.3938,357.5215,-0.0017293,-0.00027708,0.0,0 STARLINK-3748,1 52267U 22041G   22223.58334491 -.00027708  00000-0 -17293-2 0  9999,2 52267  53.2140 212.4506 0002507  45.3938 357.5215 15.08842685  1304,6917.871999999999,95.437,541.471,538.003,0.0
52267.0,STARLINK-3748,PAYLOAD,2022-08-11 22:00:00,15.08816187,0.0002414,53.2144,210.9528,50.6384,3.867,0.0023869,0.0003788,0.0,0 STARLINK-3748,1 52267U 22041G   22223.91667824  .00037880  00000-0  23869-2 0  9991,2 52267  53.2144 210.9528 0002414  50.6384   3.8670 15.08816187 18465,6917.953,95.439,541.488,538.148,0.0
52267.0,STARLINK-3748,PAYLOAD,2022-08-12 14:00:01,15.08859198,0.0002576,53.2148,207.9611,47.6115,30.0704,-0.0016835,-0.00026997,0.0,0 STARLINK-3748,1 52267U 22041G   22224.58334491 -.00026997  00000-0 -16835-2 0  9990,2 52267  53.2148 207.9611 0002576  47.6115  30.0704 15.08859198  1309,6917.821999999999,95.436,541.469,537.905,0.0
52267.0,STARLINK-3748,PAYLOAD,2022-08-12 22:00:01,15.08867332,0.0002608,53.2167,206.4659,47.8744,41.4788,-0.0028976999999999,-0.00046148,0.0,0 STARLINK-3748,1 52267U 22041G   22224.91668981 -.00046148  00000-0 -28977-2 0  9991,2 52267  53.2167 206.4659 0002608  47.8744  41.4788 15.08867332  1309,6917.797,95.436,541.466,537.8580000000002,0.0
52267.0,STARLINK-3748,PAYLOAD,2022-08-13 04:00:00,15.08867282,0.0002578,53.2154,205.3425,49.6157,318.3727,-0.0022386,-0.00035768,0.0,0 STARLINK-3748,1 52267U 22041G   22225.16667824 -.00035768  00000-0 -22386-2 0  9998,2 52267  53.2154 205.3425 0002578  49.6157 318.3727 15.08867282 18646,6917.797,95.436,541.445,537.879,0.0
52267.0,STARLINK-3748,PAYLOAD,2022-08-13 14:00:01,15.08849621,0.0002518,53.2154,203.4716,48.2731,64.2257,-0.002463,-0.00039286,0.0,0 STARLINK-3748,1 52267U 22041G   22225.58334491 -.00039286  00000-0 -24630-2 0  9998,2 52267  53.2154 203.4716 0002518  48.2731  64.2257 15.08849621  1302,6917.851,95.437,541.4580000000002,537.974,0.0
52267.0,STARLINK-3748,PAYLOAD,2022-08-13 22:00:00,15.08825445,0.0002420999999999,53.2159,201.9742,53.2056,70.8827,0.0015731,0.00024827,0.0,0 STARLINK-3748,1 52267U 22041G   22225.91667824  .00024827  00000-0  15731-2 0  9999,2 52267  53.2159 201.9742 0002421  53.2056  70.8827 15.08825445  1302,6917.925,95.438,541.465,538.115,0.0
